GLOBALSTAR M023         
1 25621U 99004A   24147.47285880 -.00000074  00000+0  16786-3 0  9990
2 25621  52.0081 150.9560 0010238 353.6502 168.5783 12.62454823166882
GLOBALSTAR M040         
1 25622U 99004B   24147.26525740 -.00000075  00000+0  16124-3 0  9997
2 25622  51.9889 155.1711 0000682 273.1234 100.9164 12.61975270166406
GLOBALSTAR M038         
1 25624U 99004D   24147.28395736 -.00000077  00000+0  15126-3 0  9994
2 25624  51.9961 105.7806 0002067 337.1260 170.9648 12.32500485154663
GLOBALSTAR M022         
1 25649U 99012A   24147.64687948 -.00000021  00000+0  79518-3 0  9993
2 25649  52.0042 261.6789 0003129 125.7993 340.1583 12.02483039129874
GLOBALSTAR M041         
1 25650U 99012B   24147.31770365 -.00000085  00000+0  71274-5 0  9998
2 25650  51.9995 132.2275 0002644 281.9413  78.1127 11.96660401131964
GLOBALSTAR M046         
1 25651U 99012C   24147.56484083 -.00000060  00000+0  31992-3 0  9999
2 25651  52.0046 226.1495 0002607 194.1212 275.4440 12.09392289137239
GLOBALSTAR M037         
1 25652U 99012D   24147.57799963 -.00000042  00000+0  34422-3 0  9998
2 25652  52.0012 281.3998 0002271  69.5274  25.6859 12.62406902162441
